[{"OBJECT_NAME":"IRIDIUM 107","OBJECT_ID":"2017-061F","EPOCH":"2026-03-09T22:26:14.574624","MEAN_MOTION":14.34217551,"ECCENTRICITY":0.00017516,"INCLINATION":86.3913,"RA_OF_ASC_NODE":66.7602,"ARG_OF_PERICENTER":87.4442,"MEAN_ANOMALY":272.6954,"EPHEMERIS_TYPE":0,"CLASSIFICATION_TYPE":"U","NORAD_CAT_ID":42960,"ELEMENT_SET_NO":999,"REV_AT_EPOCH":44059,"BSTAR":-3.536384e-6,"MEAN_MOTION_DOT":1.0e-7,"MEAN_MOTION_DDOT":0},{"OBJECT_NAME":"COSMOS 2298","OBJECT_ID":"1994-083A","EPOCH":"2026-03-09T22:06:26.635104","MEAN_MOTION":14.31156524,"ECCENTRICITY":0.00171606,"INCLINATION":74.0313,"RA_OF_ASC_NODE":328.8798,"ARG_OF_PERICENTER":291.7759,"MEAN_ANOMALY":68.1565,"EPHEMERIS_TYPE":0,"CLASSIFICATION_TYPE":"U","NORAD_CAT_ID":23431,"ELEMENT_SET_NO":999,"REV_AT_EPOCH":62948,"BSTAR":6.8786132e-5,"MEAN_MOTION_DOT":1.56e-6,"MEAN_MOTION_DDOT":0}]
